GPS BIIR-2  (PRN 13)    
1 24876U 97035A   25011.18666484 -.00000039  00000+0  00000+0 0  9994
2 24876  55.7435 118.9971 0086439  54.6890 306.0953  2.00562225201481
GPS BIIR-4  (PRN 20)    
1 26360U 00025A   25011.07324920 -.00000065  00000+0  00000+0 0  9990
2 26360  54.8259  40.4251 0039732 227.1092 141.7592  2.00563285180802
GPS BIIR-8  (PRN 16)    
1 27663U 03005A   25011.22259187  .00000081  00000+0  00000+0 0  9994
2 27663  55.0246 235.7178 0142874  49.1234  45.7593  2.00563004160842
GPS BIIR-9  (PRN 21)    
1 27704U 03010A   25011.37198720 -.00000099  00000+0  00000+0 0  9997
2 27704  55.0480 345.3811 0259944 333.2073  85.6525  2.00570070159640
GPS BIIR-11 (PRN 19)    
1 28190U 04009A   25006.63563097 -.00000055  00000+0  00000+0 0  9994
2 28190  55.2789 296.8984 0099211 155.9439  19.8438  2.00571860152383
GPS BIIR-13 (PRN 02)    
1 28474U 04045A   25011.57079345 -.00000099  00000+0  00000+0 0  9994
2 28474  55.3781 345.8632 0167219 299.1366 245.9726  2.00563287147964
GPS BIIRM-1 (PRN 17)    
1 28874U 05038A   25011.57862626 -.00000051  00000+0  00000+0 0  9991
2 28874  55.3182 294.1679 0135735 288.3560 243.3706  2.00571243141374
GPS BIIRM-2 (PRN 31)    
1 29486U 06042A   25011.49547251  .00000047  00000+0  00000+0 0  9996
2 29486  54.6811 172.0326 0105424  44.6283 326.9988  2.00570492133933
GPS BIIRM-3 (PRN 12)    
1 29601U 06052A   25009.90714995  .00000084  00000+0  00000+0 0  9991
2 29601  55.0625 234.7633 0087729  83.9424 277.1344  2.00552769132914
GPS BIIRM-4 (PRN 15)    
1 32260U 07047A   25011.21302694 -.00000054  00000+0  00000+0 0  9995
2 32260  53.7265 101.6330 0159081  79.4393 282.3551  2.00554612126343
GPS BIIRM-5 (PRN 29)    
1 32384U 07062A   25011.27533383 -.00000054  00000+0  00000+0 0  9996
2 32384  55.4625 295.0746 0027983 155.1418  18.0172  2.00558257125041
GPS BIIRM-6 (PRN 07)    
1 32711U 08012A   25010.62537868  .00000060  00000+0  00000+0 0  9992
2 32711  54.4572 170.7800 0191560 240.9069 117.1406  2.00553143123276
GPS BIIRM-8 (PRN 05)    
1 35752U 09043A   25011.12260817 -.00000059  00000+0  00000+0 0  9997
2 35752  55.8427  48.0321 0053535  75.4058 294.9941  2.00557146112892
GPS BIIF-1  (PRN 25)    
1 36585U 10022A   25011.21962494  .00000088  00000+0  00000+0 0  9992
2 36585  54.3798 229.6027 0121129  63.0852 135.1535  2.00561980107128
GPS BIIF-3  (PRN 24)    
1 38833U 12053A   25011.30869461  .00000035  00000+0  00000+0 0  9998
2 38833  53.5276 164.9624 0162567  59.4412 302.1165  2.00561109 88973
GPS BIIF-4  (PRN 27)    
1 39166U 13023A   25011.17095370 -.00000044  00000+0  00000+0 0  9992
2 39166  54.9324 290.1828 0130234  45.6854 315.4082  2.00562070 85412
GPS BIIF-5  (PRN 30)    
1 39533U 14008A   25009.17454614  .00000083  00000+0  00000+0 0  9993
2 39533  53.6075 170.6786 0074151 220.9173 138.5100  2.00553782 79172
GPS BIIF-6  (PRN 06)    
1 39741U 14026A   25010.95358578 -.00000092  00000+0  00000+0 0  9995
2 39741  56.6852 351.8136 0036100 315.8966  43.8146  2.00553522 78064
GPS BIIF-7  (PRN 09)    
1 40105U 14045A   25011.03459542 -.00000048  00000+0  00000+0 0  9996
2 40105  55.0312 109.3022 0029654 118.3455 241.9496  2.00550479 75603
GPS BIIF-8  (PRN 03)    
1 40294U 14068A   25010.91322951 -.00000057  00000+0  00000+0 0  9999
2 40294  56.5953  51.1519 0054556  64.3159 296.3095  2.00573043 74738
GPS BIIF-9  (PRN 26)    
1 40534U 15013A   25011.54733269  .00000086  00000+0  00000+0 0  9996
2 40534  53.2778 225.7644 0096797  33.6319 327.0502  2.00552955 71788
GPS BIIF-10 (PRN 08)    
1 40730U 15033A   25011.20959369 -.00000041  00000+0  00000+0 0  9992
2 40730  54.4132 288.5519 0102277  21.9788 338.4936  2.00556252 69522
GPS BIIF-11 (PRN 10)    
1 41019U 15062A   25011.26888995 -.00000056  00000+0  00000+0 0  9993
2 41019  56.5741  50.9935 0102775 227.3772 131.8119  2.00562758 67369
GPS BIIF-12 (PRN 32)    
1 41328U 16007A   25011.35388229 -.00000048  00000+0  00000+0 0  9992
2 41328  55.2198 110.1787 0084972 240.1052 119.0446  2.00551585 65376
GPS BIII-1  (PRN 04)    
1 43873U 18109A   25011.50095399 -.00000046  00000+0  00000+0 0  9992
2 43873  55.3873 112.7935 0032747 194.5879 165.4172  2.00563348 44614
GPS BIII-2  (PRN 18)    
1 44506U 19056A   25011.37394434 -.00000095  00000+0  00000+0 0  9999
2 44506  55.8194 351.8446 0048684 194.8171 337.0271  2.00559129 39609
GPS BIII-3  (PRN 23)    
1 45854U 20041A   25011.33107108 -.00000057  00000+0  00000+0 0  9996
2 45854  56.2944  49.2665 0050583 198.5801 242.5805  2.00568846 33576
GPS BIII-4  (PRN 14)    
1 46826U 20078A   25011.25396556  .00000084  00000+0  00000+0 0  9993
2 46826  54.1065 231.9562 0052438 198.2077 159.7844  2.00559530 31037
GPS BIII-5  (PRN 11)    
1 48859U 21054A   25011.24535161 -.00000095  00000+0  00000+0 0  9995
2 48859  55.3489 353.4046 0019334 230.9048 307.3550  2.00572645 26283
GPS BIII-6  (PRN 28)    
1 55268U 23009A   25011.44474243  .00000043  00000+0  00000+0 0  9996
2 55268  55.0858 169.0027 0002007  71.1044 288.8739  2.00548905 14788
GPS BIII-7  (PRN 01)    
1 62339U 24242A   25011.57565299 -.00000096  00000+0  00000+0 0  9998
2 62339  54.9988 355.2964 0004522 283.9951 255.5268  2.00554940   790
